NORAD_CAT_ID,OBJECT_NAME,OBJECT_TYPE,EPOCH,MEAN_MOTION,ECCENTRICITY,INCLINATION,RA_OF_ASC_NODE,ARG_OF_PERICENTER,MEAN_ANOMALY,BSTAR,MEAN_MOTION_DOT,MEAN_MOTION_DDOT,TLE_LINE0,TLE_LINE1,TLE_LINE2,SEMIMAJOR_AXIS,PERIOD,APOGEE,PERIGEE,DECAYED
55405.0,STARLINK-5623,PAYLOAD,2023-05-22 02:27:40,15.69946138,0.0003033,70.0004,139.249,261.8256,98.2596,4.5838e-05,5.307e-05,0.0,0 STARLINK-5623,1 55405U 23014Q   23142.10254783  .00005307  00000-0  45838-4 0  9998,2 55405  70.0004 139.2490 0003033 261.8256  98.2596 15.69946138 17536,6737.188,91.723,361.096,357.01,0.0
55405.0,STARLINK-5623,PAYLOAD,2023-05-22 08:34:40,15.69940442,0.0003354,70.0011,138.5338,252.0034,108.0796,3.4683e-05,3.962e-05,0.0,0 STARLINK-5623,1 55405U 23014Q   23142.35741472  .00003962  00000-0  34683-4 0  9992,2 55405  70.0011 138.5338 0003354 252.0034 108.0796 15.69940442 18512,6737.204,91.723,361.329,356.81,0.0
55405.0,STARLINK-5623,PAYLOAD,2023-05-23 02:55:43,15.69906866,0.0002798,69.9984,136.3826,247.0535,113.0365,3.4629e-05,3.95e-05,0.0,0 STARLINK-5623,1 55405U 23014Q   23143.12203139  .00003950  00000-0  34629-4 0  9998,2 55405  69.9984 136.3826 0002798 247.0535 113.0365 15.69906866 17695,6737.3,91.725,361.051,357.28,0.0
55405.0,STARLINK-5623,PAYLOAD,2023-05-23 09:02:37,15.70005041,0.000322,69.9987,135.6671,263.59,96.4929,0.00018187,0.00021785,0.0,0 STARLINK-5623,1 55405U 23014Q   23143.37681831  .00021785  00000-0  18187-3 0  9990,2 55405  69.9987 135.6671 0003220 263.5900  96.4929 15.70005041 17730,6737.02,91.719,361.054,356.715,0.0
55405.0,STARLINK-5623,PAYLOAD,2023-05-23 16:41:30,15.69906323,0.0003791,69.9963,134.7719,265.2921,94.7842,-5.8157e-06,-9.12e-06,0.0,0 STARLINK-5623,1 55405U 23014Q   23143.69548852 -.00000912  00000-0 -58157-5 0  9994,2 55405  69.9963 134.7719 0003791 265.2921  94.7842 15.69906323 17783,6737.302,91.725,361.721,356.613,0.0
55405.0,STARLINK-5623,PAYLOAD,2023-05-23 22:48:30,15.69918966,0.0003371,69.9987,134.053,268.314,91.767,-3.0334e-05,-3.858e-05,0.0,0 STARLINK-5623,1 55405U 23014Q   23143.95035337 -.00003858  00000-0 -30334-4 0  9990,2 55405  69.9987 134.0530 0003371 268.3140  91.7670 15.69918966 18765,6737.266,91.724,361.402,356.86,0.0
55405.0,STARLINK-5623,PAYLOAD,2023-05-24 00:20:15,15.69919434,0.0003455,69.9987,133.8757,267.6836,92.3964,-2.8487e-05,-3.636e-05,0.0,0 STARLINK-5623,1 55405U 23014Q   23144.01406961 -.00003636  00000-0 -28487-4 0  9993,2 55405  69.9987 133.8757 0003455 267.6836  92.3964 15.69919434 17831,6737.264,91.724,361.457,356.802,0.0
55405.0,STARLINK-5623,PAYLOAD,2023-05-24 09:30:45,15.69938276,0.0003186,69.9966,132.7978,263.6031,96.4802,-2.036e-05,-2.661e-05,0.0,0 STARLINK-5623,1 55405U 23014Q   23144.39635514 -.00002661  00000-0 -20360-4 0  9991,2 55405  69.9966 132.7978 0003186 263.6031  96.4802 15.69938276 17892,6737.211,91.723,361.222,356.929,0.0
55405.0,STARLINK-5623,PAYLOAD,2023-05-26 01:16:19,15.69907167,0.0003401,69.9971,128.1422,271.4358,88.6448,1.4395e-05,1.517e-05,0.0,0 STARLINK-5623,1 55405U 23014Q   23146.05300427  .00001517  00000-0  14395-4 0  9996,2 55405  69.9971 128.1422 0003401 271.4358  88.6448 15.69907167 18154,6737.3,91.725,361.456,356.873,0.0
55405.0,STARLINK-5623,PAYLOAD,2023-05-26 08:55:04,15.69920219,0.0003182,69.9975,127.2455,271.6559,88.4272,1.1676e-05,1.191e-05,0.0,0 STARLINK-5623,1 55405U 23014Q   23146.37158174  .00001191  00000-0  11676-4 0  9998,2 55405  69.9975 127.2455 0003182 271.6559  88.4272 15.69920219 19141,6737.262,91.724,361.271,356.983,0.0
55405.0,STARLINK-5623,PAYLOAD,2023-05-27 15:30:06,15.69938757,0.0003246,69.9976,123.6639,262.173,97.9097,-2.3416e-05,-3.029e-05,0.0,0 STARLINK-5623,1 55405U 23014Q   23147.64590943 -.00003029  00000-0 -23416-4 0  9992,2 55405  69.9976 123.6639 0003246 262.1730  97.9097 15.69938757 18407,6737.209,91.723,361.261,356.887,0.0
55405.0,STARLINK-5623,PAYLOAD,2023-05-27 21:37:07,15.69924666,0.000342,69.9971,122.947,260.054,100.027,1.0642e-05,1.067e-05,0.0,0 STARLINK-5623,1 55405U 23014Q   23147.90078129  .00001067  00000-0  10642-4 0  9993,2 55405  69.9971 122.9470 0003420 260.0540 100.0270 15.69924666 19388,6737.25,91.724,361.419,356.81,0.0
55405.0,STARLINK-5623,PAYLOAD,2023-05-28 00:40:37,15.69923364,0.0003423,69.9974,122.5884,259.5739,100.5071,8.7872e-06,8.44e-06,0.0,0 STARLINK-5623,1 55405U 23014Q   23148.02821577  .00000844  00000-0  87872-5 0  9992,2 55405  69.9974 122.5884 0003423 259.5739 100.5071 15.69923364 18468,6737.253,91.724,361.424,356.812,0.0
55405.0,STARLINK-5623,PAYLOAD,2023-05-28 15:58:09,15.6992556,0.0002907,69.9971,120.7957,257.0526,103.0345,7.3627e-06,6.73e-06,0.0,0 STARLINK-5623,1 55405U 23014Q   23148.66538269  .00000673  00000-0  73627-5 0  9998,2 55405  69.9971 120.7957 0002907 257.0526 103.0345 15.69925560 19507,6737.247,91.724,361.07,357.153,0.0
55405.0,STARLINK-5623,PAYLOAD,2023-05-29 01:08:40,15.69914508,0.0003632,69.9991,119.7249,275.4583,84.6198,-1.3959e-05,-1.89e-05,0.0,0 STARLINK-5623,1 55405U 23014Q   23149.04769394 -.00001890  00000-0 -13959-4 0  9991,2 55405  69.9991 119.7249 0003632 275.4583  84.6198 15.69914508 18626,6737.279,91.725,361.591,356.697,0.0
55405.0,STARLINK-5623,PAYLOAD,2023-05-29 07:15:40,15.69916821,0.0003102,69.9975,119.0062,257.3367,102.7482,-5.5888e-07,-2.8e-06,0.0,0 STARLINK-5623,1 55405U 23014Q   23149.30255586 -.00000280  00000-0 -55888-6 0  9994,2 55405  69.9975 119.0062 0003102 257.3367 102.7482 15.69916821 18667,6737.272,91.725,361.227,357.047,0.0
55405.0,STARLINK-5623,PAYLOAD,2023-05-29 21:01:26,15.69922781,0.0003047,69.9985,117.3935,258.5728,101.5126,7.0165e-06,6.31e-06,0.0,0 STARLINK-5623,1 55405U 23014Q   23149.87600174  .00000631  00000-0  70165-5 0  9995,2 55405  69.9985 117.3935 0003047 258.5728 101.5126 15.69922781 19698,6737.255,91.724,361.173,357.067,0.0
55405.0,STARLINK-5623,PAYLOAD,2023-05-30 00:04:55,15.69933517,0.0002977,70.0004,117.0371,235.3161,124.7754,1.8131e-05,1.969e-05,0.0,0 STARLINK-5623,1 55405U 23014Q   23150.00342529  .00001969  00000-0  18131-4 0  9998,2 55405  70.0004 117.0371 0002977 235.3161 124.7754 15.69933517 18770,6737.224,91.724,361.095,357.084,0.0
55405.0,STARLINK-5623,PAYLOAD,2023-05-30 07:43:46,15.69857289,0.0002813,69.9997,116.1414,264.9986,95.0889,-6.3274e-05,-7.792e-05,0.0,0 STARLINK-5623,1 55405U 23014Q   23150.32207026 -.00007792  00000-0 -63274-4 0  9995,2 55405  69.9997 116.1414 0002813 264.9986  95.0889 15.69857289 18824,6737.442,91.728,361.203,357.412,0.0
55405.0,STARLINK-5623,PAYLOAD,2023-05-30 15:22:28,15.6992061,0.0002728,69.9969,115.2437,278.4278,81.6609,1.0356e-05,1.033e-05,0.0,0 STARLINK-5623,1 55405U 23014Q   23150.64060402  .00001033  00000-0  10356-4 0  9998,2 55405  69.9969 115.2437 0002728 278.4278  81.6609 15.69920610 18872,6737.261,91.724,360.964,357.288,0.0
55405.0,STARLINK-5623,PAYLOAD,2023-05-30 21:29:28,15.69922733,0.0003062,69.9976,114.5273,268.1015,91.983,6.8786e-06,6.14e-06,0.0,0 STARLINK-5623,1 55405U 23014Q   23150.89546885  .00000614  00000-0  68786-5 0  9994,2 55405  69.9976 114.5273 0003062 268.1015  91.9830 15.69922733 19854,6737.255,91.724,361.183,357.057,0.0
55405.0,STARLINK-5623,PAYLOAD,2023-05-31 06:39:59,15.69919904,0.0003332,69.9978,113.4525,267.886,92.1954,2.1093e-05,2.324e-05,0.0,0 STARLINK-5623,1 55405U 23014Q   23151.27776867  .00002324  00000-0  21093-4 0  9991,2 55405  69.9978 113.4525 0003332 267.8860  92.1954 15.69919904 19911,6737.263,91.724,361.373,356.883,0.0
55405.0,STARLINK-5623,PAYLOAD,2023-05-31 23:29:15,15.69931793,0.0003229,69.9975,111.4806,259.4845,100.5987,-7.4728e-06,-1.111e-05,0.0,0 STARLINK-5623,1 55405U 23014Q   23151.97865117 -.00001111  00000-0 -74728-5 0  9994,2 55405  69.9975 111.4806 0003229 259.4845 100.5987 15.69931793 19081,6737.229,91.724,361.27,356.919,0.0
55405.0,STARLINK-5623,PAYLOAD,2023-06-01 07:08:00,15.69933126,0.000337,69.9955,110.5864,262.1428,97.9385,-7.824e-07,-3.07e-06,0.0,0 STARLINK-5623,1 55405U 23014Q   23152.29723128 -.00000307  00000-0 -78240-6 0  9995,2 55405  69.9955 110.5864 0003370 262.1428  97.9385 15.69933126 20072,6737.225,91.724,361.361,356.82,0.0
55405.0,STARLINK-5623,PAYLOAD,2023-06-02 07:36:03,15.69921271,0.0003418,69.9975,107.7184,266.6571,93.4234,7.0979e-06,6.41e-06,0.0,0 STARLINK-5623,1 55405U 23014Q   23153.31670699  .00000641  00000-0  70979-5 0  9992,2 55405  69.9975 107.7184 0003418 266.6571  93.4234 15.69921271 19292,6737.259,91.724,361.427,356.821,0.0
55405.0,STARLINK-5623,PAYLOAD,2023-06-03 03:28:49,15.69936172,0.0003566,69.9977,105.3891,269.781,90.2977,1.7458e-06,-3e-08,0.0,0 STARLINK-5623,1 55405U 23014Q   23154.14501681 -.00000003  00000-0  17458-5 0  9994,2 55405  69.9977 105.3891 0003566 269.7810  90.2977 15.69936172 19427,6737.217,91.723,361.484,356.679,0.0
55405.0,STARLINK-5623,PAYLOAD,2023-06-03 06:32:20,15.69927958,0.0003518,69.9972,105.0319,265.3735,94.7059,1.0965e-05,1.106e-05,0.0,0 STARLINK-5623,1 55405U 23014Q   23154.27245386  .00001106  00000-0  10965-4 0  9994,2 55405  69.9972 105.0319 0003518 265.3735  94.7059 15.69927958 19443,6737.24,91.724,361.475,356.735,0.0
55405.0,STARLINK-5623,PAYLOAD,2023-06-03 21:49:51,15.69924971,0.0003448,69.9973,103.2412,263.6965,96.3838,5.5966e-06,4.6e-06,0.0,0 STARLINK-5623,1 55405U 23014Q   23154.90962572  .00000460  00000-0  55966-5 0  9990,2 55405  69.9973 103.2412 0003448 263.6965  96.3838 15.69924971 20487,6737.249,91.724,361.437,356.791,0.0
55405.0,STARLINK-5623,PAYLOAD,2023-06-03 23:21:36,15.69922219,0.0003501,69.9977,103.0614,268.7801,91.2993,1.1836e-05,1.21e-05,0.0,0 STARLINK-5623,1 55405U 23014Q   23154.97334314  .00001210  00000-0  11836-4 0  9995,2 55405  69.9977 103.0614 0003501 268.7801  91.2993 15.69922219 19553,6737.257,91.724,361.48,356.763,0.0
55405.0,STARLINK-5623,PAYLOAD,2023-06-04 08:32:07,15.69928795,0.0003402,69.9995,101.9867,265.8569,94.2238,1.9657e-05,2.152e-05,0.0,0 STARLINK-5623,1 55405U 23014Q   23155.35563873  .00002152  00000-0  19657-4 0  9997,2 55405  69.9995 101.9867 0003402 265.8569  94.2238 15.69928795 20551,6737.238,91.724,361.395,356.811,0.0
